Satellite:  CUBEBUG-1 (CAPITAN BETO)
Catalog number:  39153
Epoch time:  14194.15564006 
Element set:  290 
Inclination:  98.0412 
RA of node:  274.4045 
Eccentricity:  .0016747 
Arg of perigee:  268.2233 
Mean anomaly:  91.707 
Mean motion:  14.77780686 
Decay rate:  1.76E-05
Epoch rev:  6539 

Satellite:  CAPE-2                  
Catalog number:  39382
Epoch time:  14194.36258338 
Element set:  311 
Inclination:  40.4951 
RA of node:  296.5334 
Eccentricity:  .0019851 
Arg of perigee:  63.7728 
Mean anomaly:  296.4869 
Mean motion:  15.48129669 
Decay rate:  1.03E-03
Epoch rev:  3611 

Satellite:  ZACUBE-1 (TSHEPISOSAT)  
Catalog number:  39417
Epoch time:  14194.43674516 
Element set:  348 
Inclination:  97.7723 
RA of node:  264.1561 
Eccentricity:  .0062852 
Arg of perigee:  156.9393 
Mean anomaly:  203.4649 
Mean motion:  14.78182408 
Decay rate:  2.50E-05
Epoch rev:  3457 

Satellite:  EAGLE 2                 
Catalog number:  39436
Epoch time:  14194.01699693 
Element set:  265 
Inclination:  97.7764 
RA of node:  267.2393 
Eccentricity:  .0027196 
Arg of perigee:  160.7508 
Mean anomaly:  199.4604 
Mean motion:  14.90663071 
Decay rate:  1.70E-04
Epoch rev:  3472 

Satellite:  CUBEBUG-2 (LO-74)       
Catalog number:  39440
Epoch time:  14194.35154618 
Element set:  200 
Inclination:  97.7695 
RA of node:  262.2068 
Eccentricity:  .0084374 
Arg of perigee:  160.1743 
Mean anomaly:  200.283 
Mean motion:  14.73123092 
Decay rate:  2.25E-05
Epoch rev:  3443 

Satellite:  FUNCUBE-1 (AO-73)       
Catalog number:  39444
Epoch time:  14193.60561562 
Element set:  192 
Inclination:  97.771 
RA of node:  263.3932 
Eccentricity:  .0062329 
Arg of perigee:  159.3509 
Mean anomaly:  201.026 
Mean motion:  14.78396618 
Decay rate:  2.84E-05
Epoch rev:  3322 

Satellite:  UWE-3                   
Catalog number:  39446
Epoch time:  14193.49235887 
Element set:  199 
Inclination:  97.7719 
RA of node:  262.2755 
Eccentricity:  .0073882 
Arg of perigee:  161.1934 
Mean anomaly:  199.2044 
Mean motion:  14.75562091 
Decay rate:  2.34E-05
Epoch rev:  3314 

Satellite:  NTS (CANX-6)            
Catalog number:  32784
Epoch time:  14194.11997023 
Element set:  995 
Inclination:  97.6959 
RA of node:  242.5746 
Eccentricity:  .001648 
Arg of perigee:  105.0739 
Mean anomaly:  307.5804 
Mean motion:  14.84363924 
Decay rate:  1.22E-05
Epoch rev:  33574 

Satellite:  COMPASS-1               
Catalog number:  32787
Epoch time:  14194.12380649 
Element set:  982 
Inclination:  97.6993 
RA of node:  246.9119 
Eccentricity:  .0015322 
Arg of perigee:  96.2495 
Mean anomaly:  264.0468 
Mean motion:  14.88041058 
Decay rate:  2.86E-05
Epoch rev:  33604 

Satellite:  CANX-2                  
Catalog number:  32790
Epoch time:  14193.79290149 
Element set:  989 
Inclination:  97.6931 
RA of node:  243.4832 
Eccentricity:  .0016 
Arg of perigee:  105.4685 
Mean anomaly:  317.7725 
Mean motion:  14.85233673 
Decay rate:  1.77E-05
Epoch rev:  33579 

Satellite:  NEE-01 PEGASUS          
Catalog number:  39151
Epoch time:  14194.17570422 
Element set:  171 
Inclination:  98.042 
RA of node:  274.3713 
Eccentricity:  .0016614 
Arg of perigee:  265.5181 
Mean anomaly:  94.4131 
Mean motion:  14.77626756 
Decay rate:  7.45E-06
Epoch rev:  6538 

Satellite:  ESTCUBE 1               
Catalog number:  39161
Epoch time:  14194.42833176 
Element set:  281 
Inclination:  98.0968 
RA of node:  275.1327 
Eccentricity:  .0009068 
Arg of perigee:  320.607 
Mean anomaly:  39.4487 
Mean motion:  14.70052371 
Decay rate:  1.41E-05
Epoch rev:  6345 

Satellite:  WNISAT-1                
Catalog number:  39423
Epoch time:  14194.22856448 
Element set:  640 
Inclination:  97.75 
RA of node:  254.3501 
Eccentricity:  .0178145 
Arg of perigee:  180.4978 
Mean anomaly:  179.6085 
Mean motion:  14.51800255 
Decay rate:  8.93E-06
Epoch rev:  3391 

Satellite:  NEE-02 KRYSAOR          
Catalog number:  39441
Epoch time:  14194.16849865 
Element set:  196 
Inclination:  97.7682 
RA of node:  261.9707 
Eccentricity:  .0085001 
Arg of perigee:  161.0821 
Mean anomaly:  199.3597 
Mean motion:  14.7287868 
Decay rate:  1.67E-05
Epoch rev:  3436 

Satellite:  LITUANICASAT-1          
Catalog number:  39569
Epoch time:  14194.58403949 
Element set:  415 
Inclination:  51.6391 
RA of node:  309.6891 
Eccentricity:  .0011476 
Arg of perigee:  329.9367 
Mean anomaly:  126.2622 
Mean motion:  15.98412445 
Decay rate:  7.08E-03
Epoch rev:  2122 

Satellite:  QB50P1                  
Catalog number:  40025
Epoch time:  14194.42496389 
Element set:  62 
Inclination:  97.98 
RA of node:  89.1053 
Eccentricity:  .0012276 
Arg of perigee:  207.7903 
Mean anomaly:  152.2631 
Mean motion:  14.85257501 
Decay rate:  2.49E-05
Epoch rev:  348 

Satellite:  QB50P2                  
Catalog number:  40032
Epoch time:  14194.43113134 
Element set:  62 
Inclination:  97.9807 
RA of node:  89.097 
Eccentricity:  .0011991 
Arg of perigee:  199.2149 
Mean anomaly:  160.8599 
Mean motion:  14.84868471 
Decay rate:  2.42E-05
Epoch rev:  348 

Satellite:  ANTELSAT                
Catalog number:  40034
Epoch time:  14194.44570174 
Element set:  56 
Inclination:  97.9786 
RA of node:  88.6067 
Eccentricity:  .0062449 
Arg of perigee:  122.3459 
Mean anomaly:  238.3764 
Mean motion:  14.71220868 
Decay rate:  1.87E-05
Epoch rev:  346 

Satellite:  NOAA 15                 
Catalog number:  25338
Epoch time:  14194.08294392 
Element set:  257 
Inclination:  98.7536 
RA of node:  187.8923 
Eccentricity:  .0011714 
Arg of perigee:  76.1122 
Mean anomaly:  327.0007 
Mean motion:  14.25443523 
Decay rate:  1.52E-06
Epoch rev:  84053 

Satellite:  NOAA 18                 
Catalog number:  28654
Epoch time:  14194.1204091 
Element set:  154 
Inclination:  99.1497 
RA of node:  174.1427 
Eccentricity:  .0014351 
Arg of perigee:  187.0369 
Mean anomaly:  304.963 
Mean motion:  14.12039357 
Decay rate:  1.90E-07
Epoch rev:  47122 

Satellite:  METOP-A                 
Catalog number:  29499
Epoch time:  14193.47465404 
Element set:  397 
Inclination:  98.7238 
RA of node:  252.711 
Eccentricity:  .0002273 
Arg of perigee:  92.6846 
Mean anomaly:  321.993 
Mean motion:  14.21476018 
Decay rate:  7.90E-07
Epoch rev:  40102 

Satellite:  NOAA 19                 
Catalog number:  33591
Epoch time:  14194.08430443 
Element set:  303 
Inclination:  98.9454 
RA of node:  139.0457 
Eccentricity:  .0014867 
Arg of perigee:  50.2514 
Mean anomaly:  81.6657 
Mean motion:  14.11736598 
Decay rate:  5.50E-07
Epoch rev:  27964 

Satellite:  SUOMI NPP               
Catalog number:  37849
Epoch time:  14193.09026355 
Element set:  823 
Inclination:  98.7895 
RA of node:  132.8905 
Eccentricity:  .0001007 
Arg of perigee:  77.3263 
Mean anomaly:  50.7554 
Mean motion:  14.19517928 
Decay rate:  7.60E-07
Epoch rev:  14012 

Satellite:  METOP-B                 
Catalog number:  38771
Epoch time:  14194.35637697 
Element set:  544 
Inclination:  98.6827 
RA of node:  253.9961 
Eccentricity:  .0003056 
Arg of perigee:  114.6119 
Mean anomaly:  298.0457 
Mean motion:  14.215084 
Decay rate:  4.00E-07
Epoch rev:  9428 

Satellite:  AISSAT 1                
Catalog number:  36797
Epoch time:  14194.52392553 
Element set:  370 
Inclination:  98.0153 
RA of node:  285.418 
Eccentricity:  .0010263 
Arg of perigee:  242.853 
Mean anomaly:  117.1632 
Mean motion:  14.8360708 
Decay rate:  1.71E-05
Epoch rev:  21655 

Satellite:  BUGSAT-1 (TITA)         
Catalog number:  40014
Epoch time:  14194.39386322 
Element set:  75 
Inclination:  97.9922 
RA of node:  89.3384 
Eccentricity:  .0032567 
Arg of perigee:  266.616 
Mean anomaly:  93.1339 
Mean motion:  14.91458434 
Decay rate:  2.17E-05
Epoch rev:  351 

Satellite:  DUCHIFAT-1              
Catalog number:  40021
Epoch time:  14194.4907252 
Element set:  63 
Inclination:  97.9816 
RA of node:  89.1791 
Eccentricity:  .0013163 
Arg of perigee:  208.9775 
Mean anomaly:  151.071 
Mean motion:  14.85373997 
Decay rate:  3.24E-05
Epoch rev:  348 

Satellite:  PACE                    
Catalog number:  40023
Epoch time:  14194.42358028 
Element set:  52 
Inclination:  97.984 
RA of node:  89.1209 
Eccentricity:  .0012398 
Arg of perigee:  209.3195 
Mean anomaly:  150.7315 
Mean motion:  14.85357068 
Decay rate:  3.16E-05
Epoch rev:  347 

Satellite:  DTUSAT-2                
Catalog number:  40030
Epoch time:  14194.36341354 
Element set:  62 
Inclination:  97.9805 
RA of node:  89.028 
Eccentricity:  .0011757 
Arg of perigee:  199.5235 
Mean anomaly:  160.5515 
Mean motion:  14.84889699 
Decay rate:  2.35E-05
Epoch rev:  347 

Satellite:  CANX-4                  
Catalog number:  40055
Epoch time:  14194.26237995 
Element set:  46 
Inclination:  98.258 
RA of node:  261.6334 
Eccentricity:  .0013065 
Arg of perigee:  234.387 
Mean anomaly:  125.6205 
Mean motion:  14.7335585 
Decay rate: -5.30E-07
Epoch rev:  192 

Satellite:  CANX-5                  
Catalog number:  40056
Epoch time:  14194.2604153 
Element set:  48 
Inclination:  98.2553 
RA of node:  261.6309 
Eccentricity:  .0011862 
Arg of perigee:  231.4295 
Mean anomaly:  128.6052 
Mean motion:  14.73578305 
Decay rate: -5.30E-07
Epoch rev:  192 

Satellite:  MKA-PN 2 (RELEK)        
Catalog number:  40070
Epoch time:  14194.55386075 
Element set:  19 
Inclination:  98.3807 
RA of node:  246.1319 
Eccentricity:  .0138225 
Arg of perigee:  207.3359 
Mean anomaly:  152.0522 
Mean motion:  14.51335617 
Decay rate: -9.00E-07
Epoch rev:  70 

